[{"OBJECT_NAME":"NUSAT-48 (HENRIETTA LEAVITT)","OBJECT_ID":"2024-149AG","EPOCH":"2026-03-09T19:19:17.269536","MEAN_MOTION":15.29812597,"ECCENTRICITY":0.00027538,"INCLINATION":97.3923,"RA_OF_ASC_NODE":150.8264,"ARG_OF_PERICENTER":263.3026,"MEAN_ANOMALY":96.7901,"EPHEMERIS_TYPE":0,"CLASSIFICATION_TYPE":"U","NORAD_CAT_ID":60498,"ELEMENT_SET_NO":999,"REV_AT_EPOCH":8694,"BSTAR":0.00045211745,"MEAN_MOTION_DOT":0.00012988,"MEAN_MOTION_DDOT":0},{"OBJECT_NAME":"STARLINK-32297","OBJECT_ID":"2024-183N","EPOCH":"2026-03-09T11:31:32.901888","MEAN_MOTION":15.30183595,"ECCENTRICITY":0.00011969,"INCLINATION":53.1602,"RA_OF_ASC_NODE":143.1773,"ARG_OF_PERICENTER":82.8704,"MEAN_ANOMALY":277.2432,"EPHEMERIS_TYPE":0,"CLASSIFICATION_TYPE":"U","NORAD_CAT_ID":61521,"ELEMENT_SET_NO":999,"REV_AT_EPOCH":7962,"BSTAR":3.6567654e-5,"MEAN_MOTION_DOT":7.24e-6,"MEAN_MOTION_DDOT":0}]
